[{"OBJECT_NAME":"OBJECT E","OBJECT_ID":"2024-173E","EPOCH":"2026-03-06T17:42:26.111808","MEAN_MOTION":15.19185166,"ECCENTRICITY":0.00017005,"INCLINATION":97.4124,"RA_OF_ASC_NODE":139.822,"ARG_OF_PERICENTER":89.2671,"MEAN_ANOMALY":270.8758,"EPHEMERIS_TYPE":0,"CLASSIFICATION_TYPE":"U","NORAD_CAT_ID":61231,"ELEMENT_SET_NO":999,"REV_AT_EPOCH":8020,"BSTAR":0.00013859811,"MEAN_MOTION_DOT":2.848e-5,"MEAN_MOTION_DDOT":0},{"OBJECT_NAME":"OBJECT E","OBJECT_ID":"2026-027E","EPOCH":"2026-03-09T23:02:51.074304","MEAN_MOTION":15.18126455,"ECCENTRICITY":0.00095432,"INCLINATION":97.4916,"RA_OF_ASC_NODE":197.9906,"ARG_OF_PERICENTER":204.0559,"MEAN_ANOMALY":156.0231,"EPHEMERIS_TYPE":0,"CLASSIFICATION_TYPE":"U","NORAD_CAT_ID":67750,"ELEMENT_SET_NO":999,"REV_AT_EPOCH":390,"BSTAR":0.00052617812,"MEAN_MOTION_DOT":0.00010689,"MEAN_MOTION_DDOT":0}]
